#dP2024  8 14  0  0  0.00000000      96 __u+U IGS20 FIT  IAC
## 2327 259200.00000000   900.00000000 60536 0.0000000000000
+   53   G02G03G04G05G06G07G08G09G10G11G12G13G14G15G16G17G18
+        G19G20G21G22G23G24G25G26G27G28G29G30G31G32R01R02R03
+        R04R05R07R08R09R11R12R14R15R16R17R18R19R20R21R22R24
+        R25R26  0  0  0  0  0  0  0  0  0  0  0  0  0  0  0
+          0  0  0  0  0  0  0  0  0  0  0  0  0  0  0  0  0
++         7  7  6  6  6  6  6  6  7  5  8  6  7  6  6  7  7
++         7  4  6  8  7  7  6  6  7  6  6  6  4  6  7  8  7
++         6  5  7  6  6  6  6  7  7  7  5  6  6  8  8  6  4
++         7  6  0  0  0  0  0  0  0  0  0  0  0  0  0  0  0
++         0  0  0  0  0  0  0  0  0  0  0  0  0  0  0  0  0
%c M  cc GPS ccc cccc cccc cccc cccc ccccc ccccc ccccc ccccc
%c cc cc ccc ccc cccc cccc cccc cccc ccccc ccccc ccccc ccccc
%f  0.0000000  0.000000000  0.00000000000  0.000000000000000
%f  0.0000000  0.000000000  0.00000000000  0.000000000000000
%i    0    0    0    0      0      0      0      0         0
%i    0    0    0    0      0      0      0      0         0
/* INFORMATION & ANALYSIS CENTER (IAC)      ULTRA-RAPID DATA
/* S/V CLOCKS ARE ALIGNED TO GNSS TIME                      
/* G:C1WC2W R:C1PC2P E:C1XC5X C:C2IC6I J:C1CC2S             
/* PCV:IGS20_2317 OL/AL:FES2004  NONE     YN ORB:CoN CLK:CoN
*  2024 08 14  1  0  0.00000000
PG02 -19123.845799 -13535.476103 -12336.226498   -379.470390
PG03 -12462.560320 -19555.019918  12889.160459    498.977806
PG04 -12469.868791  -9135.343056  21627.261046    423.651686
PG05   5083.296997  25944.755207   1894.148243   -183.118853
PG06 -16540.268377   7623.613629  19434.144692     99.985548
PG07 -25777.547946  -6093.800802  -3593.153555    -52.258324
PG08  -2554.793851 -17195.525954 -20072.046350    314.568714
PG09 -20020.948982   1937.910328  17283.851533    313.156724
PG10  11522.104422 -11891.556067 -20473.412919    -93.273589
PG11  -1818.890635  15347.806543  21634.493961   -721.041607
PG12  10018.706501  22254.978028  10253.974486   -530.151277
PG13  -7488.735945  18865.737038 -17222.667226    670.640150
PG14 -14096.662272   7779.476585 -21048.974321    471.840665
PG15   5046.242592  17079.989270 -20169.702491    192.312135
PG16    692.114587 -25775.964772   4950.335313   -209.297613
PG17 -22469.753879  13475.138254  -4455.314217    655.270018
PG18  25575.434203   5536.185300  -5163.386888   -645.908871
PG19 -19844.966151  16919.084417   3501.962255    524.218147
PG20   -351.412008  23515.786958  12551.444188    371.710551
PG21 -14745.987358 -15203.948777 -16221.202390    103.568751
PG22 -10623.449403  16556.495411 -17568.229430    -50.958019
PG23  15317.375006   2076.061310 -21601.212321    296.722411
PG24  16970.379472  15054.535961 -14572.393648   -486.131445
PG25  15479.116361  12340.879386  17492.651743    499.268652
PG26   7063.097675 -19472.772840  16259.231175    100.998426
PG27   8390.498331 -20757.978876 -14243.784919    -32.973562
PG28  18405.693327  -7283.543102  17700.058269   -371.514426
PG29  18110.241126   2879.895253  19213.363921   -584.214506
PG30 -22808.642800   2670.520738 -13415.376960   -340.423135
PG31   7503.349216 -13435.492903  21447.288086   -225.882758
PG32  21115.363663 -15470.973076  -3591.516248   -605.953787
PR01  -1384.979595 -17303.721165  18691.251501     94.426151
PR02 -11004.283440  -2082.600711  22963.240866    -24.124978
PR03 -15285.503084  14670.896552  14293.341542    105.582627
PR04 -11318.421334  22790.473174  -1877.106042    249.821924
PR05  -1304.237376  18904.213815 -17083.373561    136.052156
PR07  15236.590981 -15122.737324 -13699.756050     88.743228
PR08  10923.112093 -22924.982495   2251.937442     -6.343845
PR09  17110.205223  13615.373917  13086.358252    203.258300
PR11   1290.763537 -15618.561823  20147.430200     14.930425
PR12 -11711.235429 -22231.320827   4393.561865     43.604245
PR14 -11884.875733   1790.989237 -22483.256322     26.812591
PR15   -236.277660  16792.573227 -19170.367749     76.873219
PR16  11744.025356  22159.144287  -4535.550924     28.231405
PR17 -23571.888432   4672.107501   8487.392397    113.222916
PR18 -11398.765455   9612.656941  20720.981362    156.896647
PR19   4523.650557  10278.504690  22902.434607   -287.487618
PR20  22918.681736   4784.362112  10095.747564   -117.627918
PR21  23896.900601  -4185.962175  -7939.943780   -125.775414
PR22  10396.483815  -9931.219215 -21043.465094     69.932428
PR24 -23374.475137  -3683.600970  -9475.960534    -67.734540
PR25  23643.257157  -4014.429270  -8728.177570   -100.311566
PR26  11485.880608 -22778.245774    696.248033      9.501119
*  2024 08 14  1 15  0.00000000
PG02 -17523.320818 -13374.513375 -14570.296065   -379.463347
PG03 -12611.063700 -20906.085493  10430.413628    498.991322
PG04 -10605.574567 -10774.366260  21853.915926    423.658441
PG05   4755.515510  25620.972798   4743.677055   -183.119626
PG06 -18524.068335   6893.349488  17857.050080     99.963692
PG07 -25995.951069  -6423.700911   -799.134690    -52.253016
PG08   -888.147642 -18666.699236 -18817.680081    314.581898
PG09 -18633.831587    377.930441  18854.708982    313.170773
PG10  12137.773325  -9531.533387 -21354.219151    -93.283437
PG11  -4161.297280  14529.482661  21869.138391   -721.046575
PG12   9955.124905  23337.260028   7654.526865   -530.154097
PG13  -9079.001884  19782.201731 -15274.862361    670.642427
PG14 -14641.538089   5392.553019 -21439.445038    471.848557
PG15   3609.449960  18690.609310 -18967.980536    192.316309
PG16   1079.833467 -25050.493042   7706.252192   -209.288478
PG17 -22060.514414  12851.395256  -7211.168392    655.261416
PG18  25921.150079   5855.689372  -2335.214962   -645.911685
PG19 -20211.644161  16858.287244    621.613107    524.222764
PG20  -1147.053781  22171.987404  14753.347260    371.710093
PG21 -12772.433045 -14909.315322 -17934.706321    103.567425
PG22 -11048.531976  14430.935009 -19055.132883    -50.961958
PG23  15885.268380   4433.939764 -20841.806916    296.730182
PG24  15264.758456  14910.354453 -16499.293626   -486.132105
PG25  15782.955027  14276.910123  15714.252017    499.268876
PG26   7888.008187 -17632.206817  17915.609611    100.991588
PG27   9610.876000 -21608.459119 -11941.022745    -32.974045
PG28  20220.286668  -6625.793073  15887.079333   -371.527878
PG29  16394.623078   4370.410704  20420.183339   -584.212668
PG30 -24095.344697   2013.082595 -11134.968451   -340.417006
PG31   9845.390044 -12633.876397  21021.678584   -225.882397
PG32  20861.894889 -14869.342083  -6386.218644   -605.951282
PR01   -577.177788 -19331.093540  16635.252639     94.427349
PR02  -9727.278120  -4616.117261  23164.029477    -24.125406
PR03 -14342.185440  13014.825497  16677.493499    105.582658
PR04 -11171.731347  22903.415934   1349.190447    249.823517
PR05  -2067.213875  20720.518227 -14744.465244    136.052584
PR07  14317.525280 -13511.309528 -16153.523614     88.743535
PR08  10809.214586 -23060.836203   -969.301048     -6.343593
PR09  18019.739831  14739.431015  10350.638928    203.259837
PR11   2704.660889 -13476.086758  21507.488134     14.930262
PR12 -11403.330047 -21558.189552   7489.511966     43.604949
PR14 -13472.126553   -424.663031 -21642.387345     26.812493
PR15  -1580.913106  14722.210096 -20742.607898     76.872385
PR16  11433.468041  21456.889901  -7637.904922     28.231952
PR17 -24416.230417   4906.946757   5401.150123    113.225722
PR18 -13842.603326   9852.146065  19055.077186    156.898529
PR19   1670.084686  10318.214949  23266.323965   -287.488375
PR20  21492.696687   4623.122573  12917.425956   -117.629144
PR21  24672.421762  -4427.320813  -4830.115988   -125.778378
PR22  12903.134336 -10074.772163 -19534.994976     69.925591
PR24 -22020.937624  -3640.523043 -12308.975985    -67.735901
PR25  24528.088244  -4180.856743  -5679.420414   -100.312525
PR26  11286.244678 -22746.817547  -2520.335974      9.502663
EOF
